start=new Date('2021-09-24T00:00:00.000Z').valueOf();
sats=[{"ECCENTRICITY":"0.00015650","SITE":"AFETR","ARG_OF_PERICENTER":"74.5896","OBJECT_NAME":"STARLINK-2649","TLE_LINE2":"2 48680  53.0548 218.9578 0001565  74.5896 357.6375 15.06416645  3613","TIME_SYSTEM":"UTC","MEAN_ELEMENT_THEORY":"SGP4","TLE_LINE1":"1 48680U 21044AU  21266.91668981 -.00000309  00000-0 -18419-5 0  9994","CLASSIFICATION_TYPE":"U","EPOCH":"2021-09-23T22:00:01.999584","FILE":"3125337","SEMIMAJOR_AXIS":"6925.298","MEAN_MOTION":"15.06416645","CENTER_NAME":"EARTH","LAUNCH_DATE":"2021-05-26","PERIAPSIS":"546.079","REV_AT_EPOCH":"361","OBJECT_TYPE":"PAYLOAD","INCLINATION":"53.0548","MEAN_MOTION_DDOT":"0.0000000000000","OBJECT_ID":"2021-044AU","GP_ID":"185350933","RCS_SIZE":"LARGE","MEAN_MOTION_DOT":"-0.00000309","COUNTRY_CODE":"US","ELEMENT_SET_NO":"999","DECAY_DATE":null,"REF_FRAME":"TEME","NORAD_CAT_ID":"48680","PERIOD":"95.591","MEAN_ANOMALY":"357.6375","RA_OF_ASC_NODE":"218.9578","APOAPSIS":"548.246","BSTAR":"-0.00000184190000","EPHEMERIS_TYPE":"0"},{"RCS_SIZE":"LARGE","MEAN_MOTION_DOT":"-0.01079391","MEAN_MOTION_DDOT":"0.0000000000000","OBJECT_ID":"2021-044AV","GP_ID":"185351668","OBJECT_TYPE":"PAYLOAD","INCLINATION":"53.0505","REV_AT_EPOCH":"369","APOAPSIS":"466.070","BSTAR":"-0.03576200000000","EPHEMERIS_TYPE":"0","MEAN_ANOMALY":"284.5779","RA_OF_ASC_NODE":"190.4547","PERIOD":"93.898","COUNTRY_CODE":"US","DECAY_DATE":null,"ELEMENT_SET_NO":"999","REF_FRAME":"TEME","NORAD_CAT_ID":"48681","TLE_LINE1":"1 48681U 21044AV  21266.91668981 -.01079391  00000-0 -35762-1 0  9999","TIME_SYSTEM":"UTC","MEAN_ELEMENT_THEORY":"SGP4","OBJECT_NAME":"STARLINK-2725","ARG_OF_PERICENTER":"54.4429","TLE_LINE2":"2 48681  53.0505 190.4547 0001357  54.4429 284.5779 15.33580630  3695","ECCENTRICITY":"0.00013570","SITE":"AFETR","CENTER_NAME":"EARTH","PERIAPSIS":"464.213","LAUNCH_DATE":"2021-05-26","SEMIMAJOR_AXIS":"6843.277","MEAN_MOTION":"15.33580630","CLASSIFICATION_TYPE":"U","EPOCH":"2021-09-23T22:00:01.999584","FILE":"3125337"},{"OBJECT_ID":"2021-044AW","MEAN_MOTION_DDOT":"0.0000000000000","GP_ID":"185351355","RCS_SIZE":"LARGE","MEAN_MOTION_DOT":"-0.00085118","REV_AT_EPOCH":"366","OBJECT_TYPE":"PAYLOAD","INCLINATION":"53.0456","MEAN_ANOMALY":"274.4165","RA_OF_ASC_NODE":"187.6566","APOAPSIS":"352.367","BSTAR":"-0.00060735000000","EPHEMERIS_TYPE":"0","COUNTRY_CODE":"US","DECAY_DATE":null,"ELEMENT_SET_NO":"999","REF_FRAME":"TEME","NORAD_CAT_ID":"48682","PERIOD":"91.532","TIME_SYSTEM":"UTC","MEAN_ELEMENT_THEORY":"SGP4","TLE_LINE1":"1 48682U 21044AW  21266.91668981 -.00085118  00000-0 -60735-3 0  9993","ECCENTRICITY":"0.00039370","SITE":"AFETR","ARG_OF_PERICENTER":"5.3297","OBJECT_NAME":"STARLINK-2743","TLE_LINE2":"2 48682  53.0456 187.6566 0003937   5.3297 274.4165 15.73214732  3669","SEMIMAJOR_AXIS":"6727.853","MEAN_MOTION":"15.73214732","CENTER_NAME":"EARTH","LAUNCH_DATE":"2021-05-26","PERIAPSIS":"347.069","CLASSIFICATION_TYPE":"U","EPOCH":"2021-09-23T22:00:01.999584","FILE":"3125337"},{"TLE_LINE2":"2 48683  53.0458 187.6560 0003830   6.5193 273.8501 15.73166440  3687","OBJECT_NAME":"STARLINK-2756","ARG_OF_PERICENTER":"6.5193","SITE":"AFETR","ECCENTRICITY":"0.00038300","TLE_LINE1":"1 48683U 21044AX  21266.91668981  .00019256  00000-0  14146-3 0  9997","MEAN_ELEMENT_THEORY":"SGP4","TIME_SYSTEM":"UTC","FILE":"3125337","CLASSIFICATION_TYPE":"U","EPOCH":"2021-09-23T22:00:01.999584","LAUNCH_DATE":"2021-05-26","PERIAPSIS":"347.279","CENTER_NAME":"EARTH","MEAN_MOTION":"15.73166440","SEMIMAJOR_AXIS":"6727.991","INCLINATION":"53.0458","OBJECT_TYPE":"PAYLOAD","REV_AT_EPOCH":"368","RCS_SIZE":"LARGE","MEAN_MOTION_DOT":"0.00019256","GP_ID":"185351458","MEAN_MOTION_DDOT":"0.0000000000000","OBJECT_ID":"2021-044AX","PERIOD":"91.535","REF_FRAME":"TEME","NORAD_CAT_ID":"48683","COUNTRY_CODE":"US","DECAY_DATE":null,"ELEMENT_SET_NO":"999","BSTAR":"0.00014146000000","EPHEMERIS_TYPE":"0","APOAPSIS":"352.433","RA_OF_ASC_NODE":"187.6560","MEAN_ANOMALY":"273.8501"},{"REV_AT_EPOCH":"362","INCLINATION":"53.0425","OBJECT_TYPE":"PAYLOAD","GP_ID":"185351257","MEAN_MOTION_DDOT":"0.0000000000000","OBJECT_ID":"2021-044AY","MEAN_MOTION_DOT":"-0.01061230","RCS_SIZE":"LARGE","NORAD_CAT_ID":"48684","REF_FRAME":"TEME","ELEMENT_SET_NO":"999","DECAY_DATE":null,"COUNTRY_CODE":"US","PERIOD":"95.368","RA_OF_ASC_NODE":"193.9814","MEAN_ANOMALY":"329.3457","EPHEMERIS_TYPE":"0","BSTAR":"-0.06982200000000","APOAPSIS":"537.330","SITE":"AFETR","ECCENTRICITY":"0.00013790","TLE_LINE2":"2 48684  53.0425 193.9814 0001379  55.7147 329.3457 15.09942899  3625","ARG_OF_PERICENTER":"55.7147","OBJECT_NAME":"STARLINK-2741","MEAN_ELEMENT_THEORY":"SGP4","TIME_SYSTEM":"UTC","TLE_LINE1":"1 48684U 21044AY  21266.91668981 -.01061230  00000-0 -69822-1 0  9999","FILE":"3125337","EPOCH":"2021-09-23T22:00:01.999584","CLASSIFICATION_TYPE":"U","MEAN_MOTION":"15.09942899","SEMIMAJOR_AXIS":"6914.511","PERIAPSIS":"535.423","LAUNCH_DATE":"2021-05-26","CENTER_NAME":"EARTH"},{"MEAN_MOTION":"15.73214583","SEMIMAJOR_AXIS":"6727.854","LAUNCH_DATE":"2021-05-26","PERIAPSIS":"347.060","CENTER_NAME":"EARTH","FILE":"3125337","CLASSIFICATION_TYPE":"U","EPOCH":"2021-09-23T22:00:01.999584","MEAN_ELEMENT_THEORY":"SGP4","TIME_SYSTEM":"UTC","TLE_LINE1":"1 48685U 21044AZ  21266.91668981 -.00080208  00000-0 -57173-3 0  9993","SITE":"AFETR","ECCENTRICITY":"0.00039510","TLE_LINE2":"2 48685  53.0460 187.6568 0003951   3.4222 278.2065 15.73214583  3689","OBJECT_NAME":"STARLINK-2751","ARG_OF_PERICENTER":"3.4222","RA_OF_ASC_NODE":"187.6568","MEAN_ANOMALY":"278.2065","BSTAR":"-0.00057173000000","EPHEMERIS_TYPE":"0","APOAPSIS":"352.377","REF_FRAME":"TEME","NORAD_CAT_ID":"48685","COUNTRY_CODE":"US","ELEMENT_SET_NO":"999","DECAY_DATE":null,"PERIOD":"91.532","GP_ID":"185351563","OBJECT_ID":"2021-044AZ","MEAN_MOTION_DDOT":"0.0000000000000","RCS_SIZE":"LARGE","MEAN_MOTION_DOT":"-0.00080208","REV_AT_EPOCH":"368","INCLINATION":"53.0460","OBJECT_TYPE":"PAYLOAD"},{"SITE":"AFETR","ECCENTRICITY":"0.00011890","TLE_LINE2":"2 48686  53.0451 187.9850 0001189  65.0844  26.8557 15.57397840  3708","OBJECT_NAME":"STARLINK-2629","ARG_OF_PERICENTER":"65.0844","TIME_SYSTEM":"UTC","MEAN_ELEMENT_THEORY":"SGP4","TLE_LINE1":"1 48686U 21044BA  21266.91668981 -.01099803  00000-0 -16263-1 0  9999","FILE":"3125337","EPOCH":"2021-09-23T22:00:01.999584","CLASSIFICATION_TYPE":"U","MEAN_MOTION":"15.57397840","SEMIMAJOR_AXIS":"6773.328","LAUNCH_DATE":"2021-05-26","PERIAPSIS":"394.388","CENTER_NAME":"EARTH","REV_AT_EPOCH":"370","INCLINATION":"53.0451","OBJECT_TYPE":"PAYLOAD","GP_ID":"185351031","OBJECT_ID":"2021-044BA","MEAN_MOTION_DDOT":"0.0000000000000","MEAN_MOTION_DOT":"-0.01099803","RCS_SIZE":"LARGE","NORAD_CAT_ID":"48686","REF_FRAME":"TEME","ELEMENT_SET_NO":"999","DECAY_DATE":null,"COUNTRY_CODE":"US","PERIOD":"92.462","RA_OF_ASC_NODE":"187.9850","MEAN_ANOMALY":"26.8557","EPHEMERIS_TYPE":"0","BSTAR":"-0.01626300000000","APOAPSIS":"395.999"},{"OBJECT_TYPE":"PAYLOAD","INCLINATION":"53.0456","REV_AT_EPOCH":"366","RCS_SIZE":"LARGE","MEAN_MOTION_DOT":"0.00021152","OBJECT_ID":"2021-044BB","MEAN_MOTION_DDOT":"0.0000000000000","GP_ID":"185351134","PERIOD":"91.536","COUNTRY_CODE":"US","DECAY_DATE":null,"ELEMENT_SET_NO":"999","REF_FRAME":"TEME","NORAD_CAT_ID":"48687","APOAPSIS":"352.450","BSTAR":"0.00015497000000","EPHEMERIS_TYPE":"0","MEAN_ANOMALY":"279.4764","RA_OF_ASC_NODE":"187.6478","OBJECT_NAME":"STARLINK-2627","ARG_OF_PERICENTER":"3.4325","TLE_LINE2":"2 48687  53.0456 187.6478 0003818   3.4325 279.4764 15.73157614  3660","ECCENTRICITY":"0.00038180","SITE":"AFETR","TLE_LINE1":"1 48687U 21044BB  21266.91668981  .00021152  00000-0  15497-3 0  9999","TIME_SYSTEM":"UTC","MEAN_ELEMENT_THEORY":"SGP4","CLASSIFICATION_TYPE":"U","EPOCH":"2021-09-23T22:00:01.999584","FILE":"3125337","CENTER_NAME":"EARTH","LAUNCH_DATE":"2021-05-26","PERIAPSIS":"347.312","SEMIMAJOR_AXIS":"6728.016","MEAN_MOTION":"15.73157614"},{"APOAPSIS":"352.444","BSTAR":"0.00001317700000","EPHEMERIS_TYPE":"0","MEAN_ANOMALY":"278.3482","RA_OF_ASC_NODE":"187.6461","PERIOD":"91.535","COUNTRY_CODE":"US","DECAY_DATE":null,"ELEMENT_SET_NO":"999","REF_FRAME":"TEME","NORAD_CAT_ID":"48688","RCS_SIZE":"LARGE","MEAN_MOTION_DOT":"0.00001224","OBJECT_ID":"2021-044BC","MEAN_MOTION_DDOT":"0.0000000000000","GP_ID":"185350934","OBJECT_TYPE":"PAYLOAD","INCLINATION":"53.0455","REV_AT_EPOCH":"366","CENTER_NAME":"EARTH","PERIAPSIS":"347.223","LAUNCH_DATE":"2021-05-26","SEMIMAJOR_AXIS":"6727.969","MEAN_MOTION":"15.73174184","CLASSIFICATION_TYPE":"U","EPOCH":"2021-09-23T22:00:01.999584","FILE":"3125337","TLE_LINE1":"1 48688U 21044BC  21266.91668981  .00001224  00000-0  13177-4 0  9992","MEAN_ELEMENT_THEORY":"SGP4","TIME_SYSTEM":"UTC","ARG_OF_PERICENTER":"5.1891","OBJECT_NAME":"STARLINK-2742","TLE_LINE2":"2 48688  53.0455 187.6461 0003880   5.1891 278.3482 15.73174184  3664","ECCENTRICITY":"0.00038800","SITE":"AFETR"},{"TLE_LINE1":"1 48689U 21044BD  21266.91668981  .00020133  00000-0  14769-3 0  9990","MEAN_ELEMENT_THEORY":"SGP4","TIME_SYSTEM":"UTC","TLE_LINE2":"2 48689  53.0457 187.6469 0003896   6.0751 278.0944 15.73165115  3661","OBJECT_NAME":"STARLINK-2617","ARG_OF_PERICENTER":"6.0751","SITE":"AFETR","ECCENTRICITY":"0.00038960","LAUNCH_DATE":"2021-05-26","PERIAPSIS":"347.238","CENTER_NAME":"EARTH","MEAN_MOTION":"15.73165115","SEMIMAJOR_AXIS":"6727.995","FILE":"3125337","EPOCH":"2021-09-23T22:00:01.999584","CLASSIFICATION_TYPE":"U","MEAN_MOTION_DOT":"0.00020133","RCS_SIZE":"LARGE","GP_ID":"185351669","MEAN_MOTION_DDOT":"0.0000000000000","OBJECT_ID":"2021-044BD","INCLINATION":"53.0457","OBJECT_TYPE":"PAYLOAD","REV_AT_EPOCH":"366","EPHEMERIS_TYPE":"0","BSTAR":"0.00014769000000","APOAPSIS":"352.481","RA_OF_ASC_NODE":"187.6469","MEAN_ANOMALY":"278.0944","PERIOD":"91.535","NORAD_CAT_ID":"48689","REF_FRAME":"TEME","ELEMENT_SET_NO":"999","DECAY_DATE":null,"COUNTRY_CODE":"US"}];
